{
  "type": "FeatureCollection",
  "features": [
    {
      "type": "Feature",
      "properties": {
        "norad_id": 63772,
        "name": "BIOMASS",
        "group": "resource",
        "lat": -81.25911628345875,
        "lon": -122.25859878197602,
        "alt_km": 677.0688798007832,
        "timestamp": "2025-12-11T08:58:26.772248+00:00",
        "meta_object_name": "BIOMASS",
        "meta_object_id": "2025-090A",
        "meta_epoch": "2025-12-11T02:49:22.864800",
        "meta_mean_motion": 14.67541407,
        "meta_eccentricity": 0.000118,
        "meta_inclination": 98.07,
        "meta_ra_of_asc_node": 170.1509,
        "meta_arg_of_pericenter": 77.1221,
        "meta_mean_anomaly": 283.0116,
        "meta_ephemeris_type": 0,
        "meta_classification_type": "U",
        "meta_norad_cat_id": 63772,
        "meta_element_set_no": 999,
        "meta_rev_at_epoch": 3310,
        "meta_bstar": 0.0003879,
        "meta_mean_motion_dot": 2.152e-05,
        "meta_mean_motion_ddot": 0,
        "tle_line1": "1 63772U 25090A   25345.11762575  .00002152  00000+0  38790-3 0  9993",
        "tle_line2": "2 63772  98.0700 170.1509 0001180  77.1221 283.0116 14.67541407 33101"
      },
      "geometry": {
        "type": "Point",
        "coordinates": [
          -122.25859878197602,
          -81.25911628345875
        ]
      }
    },
    {
      "type": "Feature",
      "properties": {
        "norad_id": 64694,
        "name": "GOSAT-GW (IBUKI GW)",
        "group": "resource",
        "lat": 56.300782646049605,
        "lon": 113.15157829758412,
        "alt_km": 662.6883234572297,
        "timestamp": "2025-12-11T08:58:26.772258+00:00",
        "meta_object_name": "GOSAT-GW (IBUKI GW)",
        "meta_object_id": "2025-141A",
        "meta_epoch": "2025-12-10T22:35:55.172256",
        "meta_mean_motion": 14.67565098,
        "meta_eccentricity": 0.00014737,
        "meta_inclination": 98.0423,
        "meta_ra_of_asc_node": 280.4871,
        "meta_arg_of_pericenter": 82.5125,
        "meta_mean_anomaly": 277.6247,
        "meta_ephemeris_type": 0,
        "meta_classification_type": "U",
        "meta_norad_cat_id": 64694,
        "meta_element_set_no": 999,
        "meta_rev_at_epoch": 2423,
        "meta_bstar": 0.0002731805,
        "meta_mean_motion_dot": 1.503e-05,
        "meta_mean_motion_ddot": 0,
        "tle_line1": "1 64694U 25141A   25344.94161079  .00001503  00000+0  27318-3 0  9999",
        "tle_line2": "2 64694  98.0423 280.4871 0001473  82.5125 277.6247 14.67565098 24232"
      },
      "geometry": {
        "type": "Point",
        "coordinates": [
          113.15157829758412,
          56.300782646049605
        ]
      }
    },
    {
      "type": "Feature",
      "properties": {
        "norad_id": 64876,
        "name": "IONOSFERA-M 3",
        "group": "resource",
        "lat": -8.408755576839388,
        "lon": -51.44283992284647,
        "alt_km": 823.8882056300381,
        "timestamp": "2025-12-11T08:58:26.772269+00:00",
        "meta_object_name": "IONOSFERA-M 3",
        "meta_object_id": "2025-155A",
        "meta_epoch": "2025-12-11T03:56:45.059424",
        "meta_mean_motion": 14.21440368,
        "meta_eccentricity": 0.0002257,
        "meta_inclination": 98.578,
        "meta_ra_of_asc_node": 307.0751,
        "meta_arg_of_pericenter": 62.5758,
        "meta_mean_anomaly": 297.5649,
        "meta_ephemeris_type": 0,
        "meta_classification_type": "U",
        "meta_norad_cat_id": 64876,
        "meta_element_set_no": 999,
        "meta_rev_at_epoch": 1969,
        "meta_bstar": 8.7529e-05,
        "meta_mean_motion_dot": 1.49e-06,
        "meta_mean_motion_ddot": 0,
        "tle_line1": "1 64876U 25155A   25345.16441041  .00000149  00000+0  87529-4 0  9997",
        "tle_line2": "2 64876  98.5780 307.0751 0002257  62.5758 297.5649 14.21440368 19692"
      },
      "geometry": {
        "type": "Point",
        "coordinates": [
          -51.44283992284647,
          -8.408755576839388
        ]
      }
    },
    {
      "type": "Feature",
      "properties": {
        "norad_id": 64877,
        "name": "IONOSFERA-M 4",
        "group": "resource",
        "lat": 7.493214473057775,
        "lon": 128.33585382942027,
        "alt_km": 822.7302999523017,
        "timestamp": "2025-12-11T08:58:26.772279+00:00",
        "meta_object_name": "IONOSFERA-M 4",
        "meta_object_id": "2025-155B",
        "meta_epoch": "2025-12-11T04:47:14.868096",
        "meta_mean_motion": 14.21441487,
        "meta_eccentricity": 0.0001618,
        "meta_inclination": 98.5779,
        "meta_ra_of_asc_node": 307.0288,
        "meta_arg_of_pericenter": 65.0323,
        "meta_mean_anomaly": 295.1023,
        "meta_ephemeris_type": 0,
        "meta_classification_type": "U",
        "meta_norad_cat_id": 64877,
        "meta_element_set_no": 999,
        "meta_rev_at_epoch": 1969,
        "meta_bstar": 9.0432e-05,
        "meta_mean_motion_dot": 1.55e-06,
        "meta_mean_motion_ddot": 0,
        "tle_line1": "1 64877U 25155B   25345.19947764  .00000155  00000+0  90432-4 0  9998",
        "tle_line2": "2 64877  98.5779 307.0288 0001618  65.0323 295.1023 14.21441487 19695"
      },
      "geometry": {
        "type": "Point",
        "coordinates": [
          128.33585382942027,
          7.493214473057775
        ]
      }
    },
    {
      "type": "Feature",
      "properties": {
        "norad_id": 64899,
        "name": "MICROCARB",
        "group": "resource",
        "lat": 75.7625696376753,
        "lon": 27.068446172703123,
        "alt_km": 643.3573257685903,
        "timestamp": "2025-12-11T08:58:26.772289+00:00",
        "meta_object_name": "MICROCARB",
        "meta_object_id": "2025-156A",
        "meta_epoch": "2025-12-11T05:21:25.661088",
        "meta_mean_motion": 14.72052934,
        "meta_eccentricity": 0.0017044,
        "meta_inclination": 98.0027,
        "meta_ra_of_asc_node": 60.593,
        "meta_arg_of_pericenter": 149.3859,
        "meta_mean_anomaly": 210.8346,
        "meta_ephemeris_type": 0,
        "meta_classification_type": "U",
        "meta_norad_cat_id": 64899,
        "meta_element_set_no": 999,
        "meta_rev_at_epoch": 2031,
        "meta_bstar": 0.0001848,
        "meta_mean_motion_dot": 1.114e-05,
        "meta_mean_motion_ddot": 0,
        "tle_line1": "1 64899U 25156A   25345.22321367  .00001114  00000+0  18480-3 0  9990",
        "tle_line2": "2 64899  98.0027  60.5930 0017044 149.3859 210.8346 14.72052934 20319"
      },
      "geometry": {
        "type": "Point",
        "coordinates": [
          27.068446172703123,
          75.7625696376753
        ]
      }
    },
    {
      "type": "Feature",
      "properties": {
        "norad_id": 64900,
        "name": "CO3D 3",
        "group": "resource",
        "lat": -62.7348965591414,
        "lon": -132.9154031051968,
        "alt_km": 513.14163668734,
        "timestamp": "2025-12-11T08:58:26.772300+00:00",
        "meta_object_name": "CO3D 3",
        "meta_object_id": "2025-156B",
        "meta_epoch": "2025-12-11T04:44:46.317120",
        "meta_mean_motion": 15.20218213,
        "meta_eccentricity": 0.0001367,
        "meta_inclination": 97.4338,
        "meta_ra_of_asc_node": 61.5868,
        "meta_arg_of_pericenter": 101.3203,
        "meta_mean_anomaly": 258.8185,
        "meta_ephemeris_type": 0,
        "meta_classification_type": "U",
        "meta_norad_cat_id": 64900,
        "meta_element_set_no": 999,
        "meta_rev_at_epoch": 2097,
        "meta_bstar": 0.00044425,
        "meta_mean_motion_dot": 9.566e-05,
        "meta_mean_motion_ddot": 0,
        "tle_line1": "1 64900U 25156B   25345.19775830  .00009566  00000+0  44425-3 0  9994",
        "tle_line2": "2 64900  97.4338  61.5868 0001367 101.3203 258.8185 15.20218213 20976"
      },
      "geometry": {
        "type": "Point",
        "coordinates": [
          -132.9154031051968,
          -62.7348965591414
        ]
      }
    },
    {
      "type": "Feature",
      "properties": {
        "norad_id": 64901,
        "name": "CO3D 4",
        "group": "resource",
        "lat": -61.88820362427973,
        "lon": -132.38679649839042,
        "alt_km": 511.790069613824,
        "timestamp": "2025-12-11T08:58:26.772310+00:00",
        "meta_object_name": "CO3D 4",
        "meta_object_id": "2025-156C",
        "meta_epoch": "2025-12-09T21:09:17.831232",
        "meta_mean_motion": 15.20201124,
        "meta_eccentricity": 0.0001172,
        "meta_inclination": 97.4339,
        "meta_ra_of_asc_node": 60.2895,
        "meta_arg_of_pericenter": 212.2858,
        "meta_mean_anomaly": 147.8306,
        "meta_ephemeris_type": 0,
        "meta_classification_type": "U",
        "meta_norad_cat_id": 64901,
        "meta_element_set_no": 999,
        "meta_rev_at_epoch": 2077,
        "meta_bstar": -2.5806744e-05,
        "meta_mean_motion_dot": -6.26e-06,
        "meta_mean_motion_ddot": 0,
        "tle_line1": "1 64901U 25156C   25343.88145638 -.00000626  00000+0 -25807-4 0  9990",
        "tle_line2": "2 64901  97.4339  60.2895 0001172 212.2858 147.8306 15.20201124 20779"
      },
      "geometry": {
        "type": "Point",
        "coordinates": [
          -132.38679649839042,
          -61.88820362427973
        ]
      }
    }
  ]
}